CMOB_L_00004001-63
1 48975U 22623WD  26070.40854167  .00000000  00000+0  00000-0 0  9997
2 48975  55.0000   0.0000 0000000   0.0000  23.2500 16.08485945    18
CMOB_L_00004001-64
1 48976U 23347YZ  26070.40854167  .00000000  00000+0  00000-0 0  9992
2 48976  55.0000   0.0000 0000000   0.0000  23.6250 16.08485945    15
CMOB_L_00004001-65
1 48977U 24550EG  26070.40854167  .00000000  00000+0  00000-0 0  9990
2 48977  55.0000   0.0000 0000000   0.0000  24.0000 16.08485945    14
CMOB_L_00004001-66
1 48978U 23748EI  26070.40854167  .00000000  00000+0  00000-0 0  9999
2 48978  55.0000   0.0000 0000000   0.0000  24.3750 16.08485945    10
CMOB_L_00004001-67
1 48979U 22129ZK  26070.40854167  .00000000  00000+0  00000-0 0  9992
2 48979  55.0000   0.0000 0000000   0.0000  24.7500 16.08485945    18
CMOB_L_00004001-68
1 48980U 23971XQ  26070.40854167  .00000000  00000+0  00000-0 0  9990
2 48980  55.0000   0.0000 0000000   0.0000  25.1250 16.08485945    17
CMOB_L_00004001-69
1 48981U 25800EZ  26070.40854167  .00000000  00000+0  00000-0 0  9994
2 48981  55.0000   0.0000 0000000   0.0000  25.5000 16.08485945    15
CMOB_L_00004001-70
1 48982U 26371LW  26070.40854167  .00000000  00000+0  00000-0 0  9999
2 48982  55.0000   0.0000 0000000   0.0000  25.8750 16.08485945    11
CMOB_L_00004001-71
1 48983U 24675XD  26070.40854167  .00000000  00000+0  00000-0 0  9995
2 48983  55.0000   0.0000 0000000   0.0000  26.2500 16.08485945    10
CMOB_L_00004001-72
1 48984U 26009SA  26070.40854167  .00000000  00000+0  00000-0 0  9999
2 48984  55.0000   0.0000 0000000   0.0000  26.6250 16.08485945    17
CMOB_L_00004001-73
1 48985U 24644ZT  26070.40854167  .00000000  00000+0  00000-0 0  9993
2 48985  55.0000   0.0000 0000000   0.0000  27.0000 16.08485945    16
CMOB_L_00004001-74
1 48986U 24778FK  26070.40854167  .00000000  00000+0  00000-0 0  9992
2 48986  55.0000   0.0000 0000000   0.0000  27.3750 16.08485945    12
CMOB_L_00004001-75
1 48987U 22504DQ  26070.40854167  .00000000  00000+0  00000-0 0  9998
2 48987  55.0000   0.0000 0000000   0.0000  27.7500 16.08485945    10
CMOB_L_00004001-76
1 48988U 25038LN  26070.40854167  .00000000  00000+0  00000-0 0  9994
2 48988  55.0000   0.0000 0000000   0.0000  28.1250 16.08485945    18
CMOB_L_00004001-77
1 48989U 23436VL  26070.40854167  .00000000  00000+0  00000-0 0  9995
2 48989  55.0000   0.0000 0000000   0.0000  28.5000 16.08485945    16
CMOB_L_00004001-78
1 48990U 26691ZM  26070.40854167  .00000000  00000+0  00000-0 0  9993
2 48990  55.0000   0.0000 0000000   0.0000  28.8750 16.08485945    13
CMOB_L_00004001-79
1 48991U 26781WJ  26070.40854167  .00000000  00000+0  00000-0 0  9994
2 48991  55.0000   0.0000 0000000   0.0000  29.2500 16.08485945    12
CMOB_L_00004001-80
1 48992U 22204MH  26070.40854167  .00000000  00000+0  00000-0 0  9991
2 48992  55.0000   0.0000 0000000   0.0000  29.6250 16.08485945    19
CMOB_L_00004001-81
1 48993U 25774AT  26070.40854167  .00000000  00000+0  00000-0 0  9997
2 48993  55.0000   0.0000 0000000   0.0000  30.0000 16.08485945    19
CMOB_L_00004001-82
1 48994U 26966SW  26070.40854167  .00000000  00000+0  00000-0 0  9992
2 48994  55.0000   0.0000 0000000   0.0000  30.3750 16.08485945    15
CMOB_L_00004001-83
1 48995U 22172EJ  26070.40854167  .00000000  00000+0  00000-0 0  9998
2 48995  55.0000   0.0000 0000000   0.0000  30.7500 16.08485945    13
CMOB_L_00004001-84
1 48996U 24431ML  26070.40854167  .00000000  00000+0  00000-0 0  9999
2 48996  55.0000   0.0000 0000000   0.0000  31.1250 16.08485945    11
CMOB_L_00004001-85
1 48997U 26274SP  26070.40854167  .00000000  00000+0  00000-0 0  9997
2 48997  55.0000   0.0000 0000000   0.0000  31.5000 16.08485945    19
CMOB_L_00004001-86
1 48998U 25135MN  26070.40854167  .00000000  00000+0  00000-0 0  9993
2 48998  55.0000   0.0000 0000000   0.0000  31.8750 16.08485945    15
CMOB_L_00004001-87
1 48999U 24422RO  26070.40854167  .00000000  00000+0  00000-0 0  9992
2 48999  55.0000   0.0000 0000000   0.0000  32.2500 16.08485945    14
CMOB_L_00004001-88
1 49000U 22138ED  26070.40854167  .00000000  00000+0  00000-0 0  9998
2 49000  55.0000   0.0000 0000000   0.0000  32.6250 16.08485945    14
CMOB_L_00004001-89
1 49001U 26197M   26070.40854167  .00000000  00000+0  00000-0 0  9998
2 49001  55.0000   0.0000 0000000   0.0000  33.0000 16.08485945    13
CMOB_L_00004001-90
1 49002U 24509AG  26070.40854167  .00000000  00000+0  00000-0 0  9994
2 49002  55.0000   0.0000 0000000   0.0000  33.3750 16.08485945    19
CMOB_L_00004001-91
1 49003U 22558JZ  26070.40854167  .00000000  00000+0  00000-0 0  9997
2 49003  55.0000   0.0000 0000000   0.0000  33.7500 16.08485945    17
CMOB_L_00004001-92
1 49004U 24682DK  26070.40854167  .00000000  00000+0  00000-0 0  9998
2 49004  55.0000   0.0000 0000000   0.0000  34.1250 16.08485945    15
CMOB_L_00004001-93
1 49005U 25157EX  26070.40854167  .00000000  00000+0  00000-0 0  9997
2 49005  55.0000   0.0000 0000000   0.0000  34.5000 16.08485945    13
CMOB_L_00004001-94
1 49006U 25464TZ  26070.40854167  .00000000  00000+0  00000-0 0  9999
2 49006  55.0000   0.0000 0000000   0.0000  34.8750 16.08485945    19
CMOB_L_00004001-95
1 49007U 24992QV  26070.40854167  .00000000  00000+0  00000-0 0  9995
2 49007  55.0000   0.0000 0000000   0.0000  35.2500 16.08485945    18
CMOB_L_00004001-96
1 49008U 26102ZT  26070.40854167  .00000000  00000+0  00000-0 0  9991
2 49008  55.0000   0.0000 0000000   0.0000  35.6250 16.08485945    15
CMOB_L_00004001-97
1 49009U 24888FY  26070.40854167  .00000000  00000+0  00000-0 0  9991
2 49009  55.0000   0.0000 0000000   0.0000  36.0000 16.08485945    14
CMOB_L_00004001-98
1 49010U 24995GM  26070.40854167  .00000000  00000+0  00000-0 0  9992
2 49010  55.0000   0.0000 0000000   0.0000  36.3750 16.08485945    11
CMOB_L_00004001-99
1 49011U 26060NT  26070.40854167  .00000000  00000+0  00000-0 0  9998
2 49011  55.0000   0.0000 0000000   0.0000  36.7500 16.08485945    19
CMOB_L_00004001-100
1 49012U 22139NC  26070.40854167  .00000000  00000+0  00000-0 0  9992
2 49012  55.0000   0.0000 0000000   0.0000  37.1250 16.08485945    17
CMOB_L_00004001-101
1 49013U 26217ER  26070.40854167  .00000000  00000+0  00000-0 0  9994
2 49013  55.0000   0.0000 0000000   0.0000  37.5000 16.08485945    15
CMOB_L_00004001-102
1 49014U 26292EN  26070.40854167  .00000000  00000+0  00000-0 0  9998
2 49014  55.0000   0.0000 0000000   0.0000  37.8750 16.08485945    11
CMOB_L_00004001-103
1 49015U 22404HD  26070.40854167  .00000000  00000+0  00000-0 0  9990
2 49015  55.0000   0.0000 0000000   0.0000  38.2500 16.08485945    10
CMOB_L_00004001-104
1 49016U 26069HZ  26070.40854167  .00000000  00000+0  00000-0 0  9992
2 49016  55.0000   0.0000 0000000   0.0000  38.6250 16.08485945    17
CMOB_L_00004001-105
1 49017U 24035ZT  26070.40854167  .00000000  00000+0  00000-0 0  9994
2 49017  55.0000   0.0000 0000000   0.0000  39.0000 16.08485945    16
CMOB_L_00004001-106
1 49018U 22906MW  26070.40854167  .00000000  00000+0  00000-0 0  9990
2 49018  55.0000   0.0000 0000000   0.0000  39.3750 16.08485945    12
CMOB_L_00004001-107
1 49019U 22813ON  26070.40854167  .00000000  00000+0  00000-0 0  9998
2 49019  55.0000   0.0000 0000000   0.0000  39.7500 16.08485945    10
CMOB_L_00004001-108
1 49020U 25727ZW  26070.40854167  .00000000  00000+0  00000-0 0  9997
2 49020  55.0000   0.0000 0000000   0.0000  40.1250 16.08485945    10
CMOB_L_00004001-109
1 49021U 25393UQ  26070.40854167  .00000000  00000+0  00000-0 0  9997
2 49021  55.0000   0.0000 0000000   0.0000  40.5000 16.08485945    18
CMOB_L_00004001-110
1 49022U 22209JB  26070.40854167  .00000000  00000+0  00000-0 0  9991
2 49022  55.0000   0.0000 0000000   0.0000  40.8750 16.08485945    14
CMOB_L_00004001-111
1 49023U 22903HQ  26070.40854167  .00000000  00000+0  00000-0 0  9993
2 49023  55.0000   0.0000 0000000   0.0000  41.2500 16.08485945    13
CMOB_L_00004001-112
1 49024U 23539IA  26070.40854167  .00000000  00000+0  00000-0 0  9990
2 49024  55.0000   0.0000 0000000   0.0000  41.6250 16.08485945    10
CMOB_L_00004001-113
1 49025U 26484DJ  26070.40854167  .00000000  00000+0  00000-0 0  9993
2 49025  55.0000   0.0000 0000000   0.0000  42.0000 16.08485945    19
CMOB_L_00004001-114
1 49026U 22566A   26070.40854167  .00000000  00000+0  00000-0 0  9991
2 49026  55.0000   0.0000 0000000   0.0000  42.3750 16.08485945    15
CMOB_L_00004001-115
1 49027U 22726LS  26070.40854167  .00000000  00000+0  00000-0 0  9990
2 49027  55.0000   0.0000 0000000   0.0000  42.7500 16.08485945    13
CMOB_L_00004001-116
1 49028U 24982FX  26070.40854167  .00000000  00000+0  00000-0 0  9997
2 49028  55.0000   0.0000 0000000   0.0000  43.1250 16.08485945    11
CMOB_L_00004001-117
1 49029U 26662QD  26070.40854167  .00000000  00000+0  00000-0 0  9995
2 49029  55.0000   0.0000 0000000   0.0000  43.5000 16.08485945    19
CMOB_L_00004001-118
1 49030U 25784XD  26070.40854167  .00000000  00000+0  00000-0 0  9991
2 49030  55.0000   0.0000 0000000   0.0000  43.8750 16.08485945    16
CMOB_L_00004001-119
1 49031U 25810GH  26070.40854167  .00000000  00000+0  00000-0 0  9992
2 49031  55.0000   0.0000 0000000   0.0000  44.2500 16.08485945    15
CMOB_L_00004001-120
1 49032U 25306BH  26070.40854167  .00000000  00000+0  00000-0 0  9993
2 49032  55.0000   0.0000 0000000   0.0000  44.6250 16.08485945    12
CMOB_L_00004001-121
1 49033U 22223NN  26070.40854167  .00000000  00000+0  00000-0 0  9999
2 49033  55.0000   0.0000 0000000   0.0000  45.0000 16.08485945    11
CMOB_L_00004001-122
1 49034U 23759GR  26070.40854167  .00000000  00000+0  00000-0 0  9995
2 49034  55.0000   0.0000 0000000   0.0000  45.3750 16.08485945    17
CMOB_L_00004001-123
1 49035U 23574AD  26070.40854167  .00000000  00000+0  00000-0 0  9991
2 49035  55.0000   0.0000 0000000   0.0000  45.7500 16.08485945    15
CMOB_L_00004001-124
1 49036U 24460FJ  26070.40854167  .00000000  00000+0  00000-0 0  9997
2 49036  55.0000   0.0000 0000000   0.0000  46.1250 16.08485945    13
